LANDSAT 9               
1 49260U 21088A   23308.45457106  .00000394  00000+0  97573-4 0  9998
2 49260  98.2160  16.5685 0001173  91.9560 268.1773 14.57094611111816
